{
  "type": "FeatureCollection",
  "features": [
    {
      "type": "Feature",
      "properties": {
        "norad_id": 34141,
        "name": "COSMOS 2251 DEB",
        "group": "cosmos-2251-debris",
        "lat": -45.09913379246061,
        "lon": -16.25755506970037,
        "alt_km": 754.5910319874156,
        "timestamp": "2025-12-27T20:30:59.673806+00:00",
        "meta_object_name": "COSMOS 2251 DEB",
        "meta_object_id": "1993-036LN",
        "meta_epoch": "2025-12-27T09:43:26.840064",
        "meta_mean_motion": 14.49390568,
        "meta_eccentricity": 0.004652,
        "meta_inclination": 74.0119,
        "meta_ra_of_asc_node": 1.3074,
        "meta_arg_of_pericenter": 82.3122,
        "meta_mean_anomaly": 45.3005,
        "meta_ephemeris_type": 0,
        "meta_classification_type": "U",
        "meta_norad_cat_id": 34141,
        "meta_element_set_no": 999,
        "meta_rev_at_epoch": 87906,
        "meta_bstar": 0.0015785,
        "meta_mean_motion_dot": 6.097e-05,
        "meta_mean_motion_ddot": 0,
        "tle_line1": "1 34141U 93036LN  25361.40517176  .00006097  00000+0  15785-2 0  9991",
        "tle_line2": "2 34141  74.0119   1.3074 0046520  82.3122  45.3005 14.49390568879063"
      },
      "geometry": {
        "type": "Point",
        "coordinates": [
          -16.25755506970037,
          -45.09913379246061
        ]
      }
    },
    {
      "type": "Feature",
      "properties": {
        "norad_id": 34270,
        "name": "COSMOS 2251 DEB",
        "group": "cosmos-2251-debris",
        "lat": 51.15320448267083,
        "lon": -61.645085406787615,
        "alt_km": 637.7874757816871,
        "timestamp": "2025-12-27T20:30:59.673816+00:00",
        "meta_object_name": "COSMOS 2251 DEB",
        "meta_object_id": "1993-036LQ",
        "meta_epoch": "2025-12-27T03:53:10.681152",
        "meta_mean_motion": 14.65266046,
        "meta_eccentricity": 0.00482365,
        "meta_inclination": 74.0112,
        "meta_ra_of_asc_node": 278.834,
        "meta_arg_of_pericenter": 67.2275,
        "meta_mean_anomaly": 293.3979,
        "meta_ephemeris_type": 0,
        "meta_classification_type": "U",
        "meta_norad_cat_id": 34270,
        "meta_element_set_no": 999,
        "meta_rev_at_epoch": 89307,
        "meta_bstar": 0.00048835023,
        "meta_mean_motion_dot": 2.647e-05,
        "meta_mean_motion_ddot": 0,
        "tle_line1": "1 34270U 93036LQ  25361.16192918  .00002647  00000+0  48835-3 0  9990",
        "tle_line2": "2 34270  74.0112 278.8340 0048236  67.2275 293.3979 14.65266046893076"
      },
      "geometry": {
        "type": "Point",
        "coordinates": [
          -61.645085406787615,
          51.15320448267083
        ]
      }
    },
    {
      "type": "Feature",
      "properties": {
        "norad_id": 34271,
        "name": "COSMOS 2251 DEB",
        "group": "cosmos-2251-debris",
        "lat": -47.19376981722771,
        "lon": 151.9333264334197,
        "alt_km": 663.3739070372094,
        "timestamp": "2025-12-27T20:30:59.673826+00:00",
        "meta_object_name": "COSMOS 2251 DEB",
        "meta_object_id": "1993-036LR",
        "meta_epoch": "2025-12-26T22:37:18.676128",
        "meta_mean_motion": 14.71092305,
        "meta_eccentricity": 0.0017998,
        "meta_inclination": 74.0214,
        "meta_ra_of_asc_node": 171.7266,
        "meta_arg_of_pericenter": 224.8235,
        "meta_mean_anomaly": 295.8874,
        "meta_ephemeris_type": 0,
        "meta_classification_type": "U",
        "meta_norad_cat_id": 34271,
        "meta_element_set_no": 999,
        "meta_rev_at_epoch": 88443,
        "meta_bstar": 0.0027276,
        "meta_mean_motion_dot": 0.00016823,
        "meta_mean_motion_ddot": 0,
        "tle_line1": "1 34271U 93036LR  25360.94257727  .00016823  00000+0  27276-2 0  9992",
        "tle_line2": "2 34271  74.0214 171.7266 0017998 224.8235 295.8874 14.71092305884439"
      },
      "geometry": {
        "type": "Point",
        "coordinates": [
          151.9333264334197,
          -47.19376981722771
        ]
      }
    },
    {
      "type": "Feature",
      "properties": {
        "norad_id": 34273,
        "name": "COSMOS 2251 DEB",
        "group": "cosmos-2251-debris",
        "lat": 13.404922503018414,
        "lon": -125.38708571488971,
        "alt_km": 680.6404605149983,
        "timestamp": "2025-12-27T20:30:59.673835+00:00",
        "meta_object_name": "COSMOS 2251 DEB",
        "meta_object_id": "1993-036LT",
        "meta_epoch": "2025-12-27T09:57:36.000864",
        "meta_mean_motion": 14.61353977,
        "meta_eccentricity": 0.00132,
        "meta_inclination": 74.0358,
        "meta_ra_of_asc_node": 59.3656,
        "meta_arg_of_pericenter": 184.5293,
        "meta_mean_anomaly": 188.3672,
        "meta_ephemeris_type": 0,
        "meta_classification_type": "U",
        "meta_norad_cat_id": 34273,
        "meta_element_set_no": 999,
        "meta_rev_at_epoch": 88836,
        "meta_bstar": 0.00095017,
        "meta_mean_motion_dot": 4.676e-05,
        "meta_mean_motion_ddot": 0,
        "tle_line1": "1 34273U 93036LT  25361.41500001  .00004676  00000+0  95017-3 0  9995",
        "tle_line2": "2 34273  74.0358  59.3656 0013200 184.5293 188.3672 14.61353977888364"
      },
      "geometry": {
        "type": "Point",
        "coordinates": [
          -125.38708571488971,
          13.404922503018414
        ]
      }
    },
    {
      "type": "Feature",
      "properties": {
        "norad_id": 34274,
        "name": "COSMOS 2251 DEB",
        "group": "cosmos-2251-debris",
        "lat": 72.31525270955512,
        "lon": 103.55806469585711,
        "alt_km": 673.8475517741699,
        "timestamp": "2025-12-27T20:30:59.673846+00:00",
        "meta_object_name": "COSMOS 2251 DEB",
        "meta_object_id": "1993-036LU",
        "meta_epoch": "2025-12-27T12:30:09.686880",
        "meta_mean_motion": 14.64947233,
        "meta_eccentricity": 0.0021058,
        "meta_inclination": 74.004,
        "meta_ra_of_asc_node": 40.0854,
        "meta_arg_of_pericenter": 188.5612,
        "meta_mean_anomaly": 293.8,
        "meta_ephemeris_type": 0,
        "meta_classification_type": "U",
        "meta_norad_cat_id": 34274,
        "meta_element_set_no": 999,
        "meta_rev_at_epoch": 88892,
        "meta_bstar": 0.0011156,
        "meta_mean_motion_dot": 5.965e-05,
        "meta_mean_motion_ddot": 0,
        "tle_line1": "1 34274U 93036LU  25361.52094545  .00005965  00000+0  11156-2 0  9992",
        "tle_line2": "2 34274  74.0040  40.0854 0021058 188.5612 293.8000 14.64947233888925"
      },
      "geometry": {
        "type": "Point",
        "coordinates": [
          103.55806469585711,
          72.31525270955512
        ]
      }
    },
    {
      "type": "Feature",
      "properties": {
        "norad_id": 34276,
        "name": "COSMOS 2251 DEB",
        "group": "cosmos-2251-debris",
        "lat": -30.98037582958179,
        "lon": 46.67729314390382,
        "alt_km": 716.6078391979263,
        "timestamp": "2025-12-27T20:30:59.673856+00:00",
        "meta_object_name": "COSMOS 2251 DEB",
        "meta_object_id": "1993-036LW",
        "meta_epoch": "2025-12-27T04:19:52.540608",
        "meta_mean_motion": 14.57320678,
        "meta_eccentricity": 0.00219798,
        "meta_inclination": 74.0234,
        "meta_ra_of_asc_node": 57.8637,
        "meta_arg_of_pericenter": 203.2029,
        "meta_mean_anomaly": 187.687,
        "meta_ephemeris_type": 0,
        "meta_classification_type": "U",
        "meta_norad_cat_id": 34276,
        "meta_element_set_no": 999,
        "meta_rev_at_epoch": 88803,
        "meta_bstar": 0.00077352311,
        "meta_mean_motion_dot": 3.486e-05,
        "meta_mean_motion_ddot": 0,
        "tle_line1": "1 34276U 93036LW  25361.18046922  .00003486  00000+0  77352-3 0  9999",
        "tle_line2": "2 34276  74.0234  57.8637 0021979 203.2029 187.6870 14.57320678888033"
      },
      "geometry": {
        "type": "Point",
        "coordinates": [
          46.67729314390382,
          -30.98037582958179
        ]
      }
    },
    {
      "type": "Feature",
      "properties": {
        "norad_id": 34297,
        "name": "COSMOS 2251 DEB",
        "group": "cosmos-2251-debris",
        "lat": -58.61552931054479,
        "lon": -131.4821360210974,
        "alt_km": 764.8286663744748,
        "timestamp": "2025-12-27T20:30:59.673866+00:00",
        "meta_object_name": "COSMOS 2251 DEB",
        "meta_object_id": "1993-036MT",
        "meta_epoch": "2025-12-27T04:39:15.278112",
        "meta_mean_motion": 14.36641512,
        "meta_eccentricity": 0.00178132,
        "meta_inclination": 74.0483,
        "meta_ra_of_asc_node": 257.6913,
        "meta_arg_of_pericenter": 323.8146,
        "meta_mean_anomaly": 156.8191,
        "meta_ephemeris_type": 0,
        "meta_classification_type": "U",
        "meta_norad_cat_id": 34297,
        "meta_element_set_no": 999,
        "meta_rev_at_epoch": 88272,
        "meta_bstar": 0.00014554965,
        "meta_mean_motion_dot": 4.03e-06,
        "meta_mean_motion_ddot": 0,
        "tle_line1": "1 34297U 93036MT  25361.19392683  .00000403  00000+0  14555-3 0  9993",
        "tle_line2": "2 34297  74.0483 257.6913 0017813 323.8146 156.8191 14.36641512882724"
      },
      "geometry": {
        "type": "Point",
        "coordinates": [
          -131.4821360210974,
          -58.61552931054479
        ]
      }
    }
  ]
}